[{"OBJECT_NAME":"ONEWEB-0692","OBJECT_ID":"2024-188G","EPOCH":"2026-03-09T22:53:55.726944","MEAN_MOTION":13.11417072,"ECCENTRICITY":0.00027272,"INCLINATION":87.8858,"RA_OF_ASC_NODE":40.8174,"ARG_OF_PERICENTER":86.5956,"MEAN_ANOMALY":273.5483,"EPHEMERIS_TYPE":0,"CLASSIFICATION_TYPE":"U","NORAD_CAT_ID":61600,"ELEMENT_SET_NO":999,"REV_AT_EPOCH":7146,"BSTAR":-0.0010465933,"MEAN_MOTION_DOT":-3.58e-6,"MEAN_MOTION_DDOT":0},{"OBJECT_NAME":"DELTA 1 DEB","OBJECT_ID":"1975-052EM","EPOCH":"2026-03-09T22:14:25.171008","MEAN_MOTION":13.268989,"ECCENTRICITY":0.01187124,"INCLINATION":99.8505,"RA_OF_ASC_NODE":224.5635,"ARG_OF_PERICENTER":302.0692,"MEAN_ANOMALY":184.9338,"EPHEMERIS_TYPE":0,"CLASSIFICATION_TYPE":"U","NORAD_CAT_ID":21453,"ELEMENT_SET_NO":999,"REV_AT_EPOCH":68560,"BSTAR":0.0006944758,"MEAN_MOTION_DOT":2.79e-6,"MEAN_MOTION_DDOT":0}]
